[{"OBJECT_NAME":"OBJECT D","OBJECT_ID":"2024-085D","EPOCH":"2026-03-09T22:53:13.410816","MEAN_MOTION":15.33413141,"ECCENTRICITY":0.00152451,"INCLINATION":97.3312,"RA_OF_ASC_NODE":145.3953,"ARG_OF_PERICENTER":54.9672,"MEAN_ANOMALY":305.2998,"EPHEMERIS_TYPE":0,"CLASSIFICATION_TYPE":"U","NORAD_CAT_ID":59680,"ELEMENT_SET_NO":999,"REV_AT_EPOCH":10244,"BSTAR":0.00049264705,"MEAN_MOTION_DOT":0.00015903,"MEAN_MOTION_DDOT":0},{"OBJECT_NAME":"STARLINK-34550","OBJECT_ID":"2025-139V","EPOCH":"2026-03-09T10:12:33.794496","MEAN_MOTION":15.30193759,"ECCENTRICITY":0.00012808,"INCLINATION":53.1594,"RA_OF_ASC_NODE":128.2629,"ARG_OF_PERICENTER":81.15,"MEAN_ANOMALY":278.9645,"EPHEMERIS_TYPE":0,"CLASSIFICATION_TYPE":"U","NORAD_CAT_ID":64683,"ELEMENT_SET_NO":999,"REV_AT_EPOCH":4024,"BSTAR":0.00049018187,"MEAN_MOTION_DOT":0.00014184,"MEAN_MOTION_DDOT":0}]
